start=new Date('2022-06-30T00:00:00.000Z').valueOf();
sats=[{"ARG_OF_PERICENTER":"82.9639","GP_ID":"207088838","SEMIMAJOR_AXIS":"6925.372","REV_AT_EPOCH":"13677","TIME_SYSTEM":"UTC","RA_OF_ASC_NODE":"263.2159","OBJECT_TYPE":"PAYLOAD","LAUNCH_DATE":"2020-01-07","COUNTRY_CODE":"US","EPHEMERIS_TYPE":"0","ELEMENT_SET_NO":"999","EPOCH":"2022-06-29T12:50:29.093280","APOAPSIS":"548.319","RCS_SIZE":"LARGE","INCLINATION":"53.0550","MEAN_ELEMENT_THEORY":"SGP4","SITE":"AFETR","MEAN_MOTION":"15.06392199","OBJECT_ID":"2020-001AF","MEAN_ANOMALY":"277.1528","DECAY_DATE":null,"PERIAPSIS":"546.156","TLE_LINE2":"2 44943  53.0550 263.2159 0001561  82.9639 277.1528 15.06392199136773","TLE_LINE1":"1 44943U 20001AF  22180.53505895  .00001479  00000-0  11817-3 0  9992","REF_FRAME":"TEME","CLASSIFICATION_TYPE":"U","BSTAR":"0.00011817000000","MEAN_MOTION_DOT":"0.00001479","OBJECT_NAME":"STARLINK-1100","FILE":"3505485","NORAD_CAT_ID":"44943","CENTER_NAME":"EARTH","ECCENTRICITY":"0.00015610","MEAN_MOTION_DDOT":"0.0000000000000","PERIOD":"95.593"},{"REV_AT_EPOCH":"13678","ARG_OF_PERICENTER":"67.6707","GP_ID":"207090090","SEMIMAJOR_AXIS":"6925.384","APOAPSIS":"548.191","RCS_SIZE":"LARGE","INCLINATION":"53.0549","MEAN_ELEMENT_THEORY":"SGP4","TIME_SYSTEM":"UTC","RA_OF_ASC_NODE":"262.9998","OBJECT_TYPE":"PAYLOAD","LAUNCH_DATE":"2020-01-07","COUNTRY_CODE":"US","EPHEMERIS_TYPE":"0","ELEMENT_SET_NO":"999","EPOCH":"2022-06-29T13:59:30.200352","MEAN_ANOMALY":"292.4426","OBJECT_ID":"2020-001AG","DECAY_DATE":null,"PERIAPSIS":"546.307","TLE_LINE2":"2 44944  53.0549 262.9998 0001360  67.6707 292.4426 15.06388468136784","TLE_LINE1":"1 44944U 20001AG  22180.58298843 -.00001733  00000-0 -97511-4 0  9991","SITE":"AFETR","MEAN_MOTION":"15.06388468","CENTER_NAME":"EARTH","FILE":"3505485","NORAD_CAT_ID":"44944","ECCENTRICITY":"0.00013600","MEAN_MOTION_DDOT":"0.0000000000000","PERIOD":"95.593","REF_FRAME":"TEME","CLASSIFICATION_TYPE":"U","BSTAR":"-0.00009751100000","MEAN_MOTION_DOT":"-0.00001733","OBJECT_NAME":"STARLINK-1108"},{"MEAN_MOTION":"15.06382119","SITE":"AFETR","PERIAPSIS":"546.152","DECAY_DATE":null,"OBJECT_ID":"2020-001AH","MEAN_ANOMALY":"292.0966","TLE_LINE1":"1 44945U 20001AH  22180.61248237  .00000253  00000-0  35903-4 0  9999","TLE_LINE2":"2 44945  53.0556 262.8575 0001612  68.0194 292.0966 15.06382119136780","BSTAR":"0.00003590300000","CLASSIFICATION_TYPE":"U","REF_FRAME":"TEME","OBJECT_NAME":"STARLINK-1109","MEAN_MOTION_DOT":"0.00000253","NORAD_CAT_ID":"44945","FILE":"3505610","CENTER_NAME":"EARTH","PERIOD":"95.593","MEAN_MOTION_DDOT":"0.0000000000000","ECCENTRICITY":"0.00016120","ARG_OF_PERICENTER":"68.0194","SEMIMAJOR_AXIS":"6925.403","GP_ID":"207117764","REV_AT_EPOCH":"13678","COUNTRY_CODE":"US","LAUNCH_DATE":"2020-01-07","OBJECT_TYPE":"PAYLOAD","RA_OF_ASC_NODE":"262.8575","TIME_SYSTEM":"UTC","EPOCH":"2022-06-29T14:41:58.476768","ELEMENT_SET_NO":"999","EPHEMERIS_TYPE":"0","INCLINATION":"53.0556","RCS_SIZE":"LARGE","APOAPSIS":"548.385","MEAN_ELEMENT_THEORY":"SGP4"},{"REF_FRAME":"TEME","CLASSIFICATION_TYPE":"U","BSTAR":"0.00035689000000","OBJECT_NAME":"STARLINK-1110","MEAN_MOTION_DOT":"0.00006421","FILE":"3505610","CENTER_NAME":"EARTH","NORAD_CAT_ID":"44946","ECCENTRICITY":"0.00003870","MEAN_MOTION_DDOT":"0.0000000000000","PERIOD":"95.057","SITE":"AFETR","MEAN_MOTION":"15.14879890","OBJECT_ID":"2020-001AJ","MEAN_ANOMALY":"124.7618","DECAY_DATE":null,"PERIAPSIS":"521.078","TLE_LINE2":"2 44946  53.0051 248.9075 0000387 235.3337 124.7618 15.14879890136979","TLE_LINE1":"1 44946U 20001AJ  22180.88911063  .00006421  00000-0  35689-3 0  9996","TIME_SYSTEM":"UTC","RA_OF_ASC_NODE":"248.9075","LAUNCH_DATE":"2020-01-07","OBJECT_TYPE":"PAYLOAD","COUNTRY_CODE":"US","EPHEMERIS_TYPE":"0","ELEMENT_SET_NO":"999","EPOCH":"2022-06-29T21:20:19.158432","APOAPSIS":"521.612","RCS_SIZE":"LARGE","INCLINATION":"53.0051","MEAN_ELEMENT_THEORY":"SGP4","ARG_OF_PERICENTER":"235.3337","SEMIMAJOR_AXIS":"6899.480","GP_ID":"207116013","REV_AT_EPOCH":"13697"},{"TLE_LINE2":"2 44947  53.0553 263.3507 0001692  63.2856 296.8306 15.06388778136776","TLE_LINE1":"1 44947U 20001AK  22180.50189730  .00000061  00000-0  23035-4 0  9991","OBJECT_ID":"2020-001AK","MEAN_ANOMALY":"296.8306","DECAY_DATE":null,"PERIAPSIS":"546.076","MEAN_MOTION":"15.06388778","SITE":"AFETR","ECCENTRICITY":"0.00016920","MEAN_MOTION_DDOT":"0.0000000000000","PERIOD":"95.593","FILE":"3505485","NORAD_CAT_ID":"44947","CENTER_NAME":"EARTH","MEAN_MOTION_DOT":"0.00000061","OBJECT_NAME":"STARLINK-1116","REF_FRAME":"TEME","CLASSIFICATION_TYPE":"U","BSTAR":"0.00002303500000","REV_AT_EPOCH":"13677","SEMIMAJOR_AXIS":"6925.383","GP_ID":"207089339","ARG_OF_PERICENTER":"63.2856","MEAN_ELEMENT_THEORY":"SGP4","APOAPSIS":"548.420","RCS_SIZE":"LARGE","INCLINATION":"53.0553","EPHEMERIS_TYPE":"0","ELEMENT_SET_NO":"999","EPOCH":"2022-06-29T12:02:43.926720","TIME_SYSTEM":"UTC","RA_OF_ASC_NODE":"263.3507","OBJECT_TYPE":"PAYLOAD","LAUNCH_DATE":"2020-01-07","COUNTRY_CODE":"US"},{"SITE":"AFETR","MEAN_MOTION":"15.06386370","TLE_LINE2":"2 44949  53.0535 263.2422 0001390  73.7840 286.3302 15.06386370136773","TLE_LINE1":"1 44949U 20001AM  22180.52769927 -.00001083  00000-0 -53857-4 0  9999","MEAN_ANOMALY":"286.3302","OBJECT_ID":"2020-001AM","DECAY_DATE":null,"PERIAPSIS":"546.293","MEAN_MOTION_DOT":"-0.00001083","OBJECT_NAME":"STARLINK-1122","REF_FRAME":"TEME","CLASSIFICATION_TYPE":"U","BSTAR":"-0.00005385700000","ECCENTRICITY":"0.00013900","MEAN_MOTION_DDOT":"0.0000000000000","PERIOD":"95.593","NORAD_CAT_ID":"44949","FILE":"3505485","CENTER_NAME":"EARTH","SEMIMAJOR_AXIS":"6925.390","GP_ID":"207089590","ARG_OF_PERICENTER":"73.7840","REV_AT_EPOCH":"13677","EPHEMERIS_TYPE":"0","ELEMENT_SET_NO":"999","EPOCH":"2022-06-29T12:39:53.216928","RA_OF_ASC_NODE":"263.2422","TIME_SYSTEM":"UTC","LAUNCH_DATE":"2020-01-07","OBJECT_TYPE":"PAYLOAD","COUNTRY_CODE":"US","MEAN_ELEMENT_THEORY":"SGP4","APOAPSIS":"548.218","INCLINATION":"53.0535","RCS_SIZE":"LARGE"},{"EPOCH":"2022-06-29T12:50:35.802240","ELEMENT_SET_NO":"999","EPHEMERIS_TYPE":"0","COUNTRY_CODE":"US","LAUNCH_DATE":"2020-01-07","OBJECT_TYPE":"PAYLOAD","RA_OF_ASC_NODE":"261.7224","TIME_SYSTEM":"UTC","MEAN_ELEMENT_THEORY":"SGP4","INCLINATION":"53.0514","RCS_SIZE":"LARGE","APOAPSIS":"536.387","SEMIMAJOR_AXIS":"6913.965","GP_ID":"207089840","ARG_OF_PERICENTER":"328.2523","REV_AT_EPOCH":"13679","OBJECT_NAME":"STARLINK-1125","MEAN_MOTION_DOT":"0.00005313","BSTAR":"0.00033967000000","CLASSIFICATION_TYPE":"U","REF_FRAME":"TEME","PERIOD":"95.357","MEAN_MOTION_DDOT":"0.0000000000000","ECCENTRICITY":"0.00008060","NORAD_CAT_ID":"44950","FILE":"3505485","CENTER_NAME":"EARTH","SITE":"AFETR","MEAN_MOTION":"15.10121821","TLE_LINE1":"1 44950U 20001AN  22180.53513660  .00005313  00000-0  33967-3 0  9990","TLE_LINE2":"2 44950  53.0514 261.7224 0000806 328.2523  31.8419 15.10121821136799","PERIAPSIS":"535.273","DECAY_DATE":null,"OBJECT_ID":"2020-001AN","MEAN_ANOMALY":"31.8419"},{"COUNTRY_CODE":"US","OBJECT_TYPE":"PAYLOAD","LAUNCH_DATE":"2020-01-07","RA_OF_ASC_NODE":"251.7395","TIME_SYSTEM":"UTC","EPOCH":"2022-06-29T11:01:56.658720","ELEMENT_SET_NO":"999","EPHEMERIS_TYPE":"0","RCS_SIZE":"LARGE","INCLINATION":"53.0029","APOAPSIS":"522.687","MEAN_ELEMENT_THEORY":"SGP4","ARG_OF_PERICENTER":"224.0283","SEMIMAJOR_AXIS":"6900.430","GP_ID":"207089089","REV_AT_EPOCH":"13818","BSTAR":"0.00049011000000","CLASSIFICATION_TYPE":"U","REF_FRAME":"TEME","OBJECT_NAME":"STARLINK-1126","MEAN_MOTION_DOT":"0.00008854","CENTER_NAME":"EARTH","FILE":"3505485","NORAD_CAT_ID":"44951","PERIOD":"95.077","MEAN_MOTION_DDOT":"0.0000000000000","ECCENTRICITY":"0.00005690","SITE":"AFETR","MEAN_MOTION":"15.14567186","PERIAPSIS":"521.902","DECAY_DATE":null,"MEAN_ANOMALY":"136.0664","OBJECT_ID":"2020-001AP","TLE_LINE1":"1 44951U 20001AP  22180.45968355  .00008854  00000-0  49011-3 0  9997","TLE_LINE2":"2 44951  53.0029 251.7395 0000569 224.0283 136.0664 15.14567186138188"},{"SEMIMAJOR_AXIS":"6925.388","GP_ID":"207088839","ARG_OF_PERICENTER":"60.3065","REV_AT_EPOCH":"13677","ELEMENT_SET_NO":"999","EPHEMERIS_TYPE":"0","EPOCH":"2022-06-29T12:13:20.810496","OBJECT_TYPE":"PAYLOAD","LAUNCH_DATE":"2020-01-07","TIME_SYSTEM":"UTC","RA_OF_ASC_NODE":"263.3288","COUNTRY_CODE":"US","MEAN_ELEMENT_THEORY":"SGP4","APOAPSIS":"548.443","INCLINATION":"53.0550","RCS_SIZE":"LARGE","SITE":"AFETR","MEAN_MOTION":"15.06387185","TLE_LINE2":"2 44952  53.0550 263.3288 0001718  60.3065 299.8095 15.06387185136773","TLE_LINE1":"1 44952U 20001AQ  22180.50926864 -.00001461  00000-0 -79233-4 0  9992","OBJECT_ID":"2020-001AQ","MEAN_ANOMALY":"299.8095","PERIAPSIS":"546.063","DECAY_DATE":null,"OBJECT_NAME":"STARLINK-1117","MEAN_MOTION_DOT":"-0.00001461","BSTAR":"-0.00007923300000","CLASSIFICATION_TYPE":"U","REF_FRAME":"TEME","ECCENTRICITY":"0.00017180","PERIOD":"95.593","MEAN_MOTION_DDOT":"0.0000000000000","FILE":"3505485","NORAD_CAT_ID":"44952","CENTER_NAME":"EARTH"},{"MEAN_ANOMALY":"270.8905","OBJECT_ID":"2020-001AR","PERIAPSIS":"546.326","DECAY_DATE":null,"TLE_LINE2":"2 44953  53.0546 262.9371 0001345  89.2238 270.8905 15.06385598138075","TLE_LINE1":"1 44953U 20001AR  22180.59308897  .00002699  00000-0  20008-3 0  9999","MEAN_MOTION":"15.06385598","SITE":"AFETR","CENTER_NAME":"EARTH","FILE":"3505485","NORAD_CAT_ID":"44953","ECCENTRICITY":"0.00013450","PERIOD":"95.593","MEAN_MOTION_DDOT":"0.0000000000000","BSTAR":"0.00020008000000","CLASSIFICATION_TYPE":"U","REF_FRAME":"TEME","MEAN_MOTION_DOT":"0.00002699","OBJECT_NAME":"STARLINK-1124","REV_AT_EPOCH":"13807","ARG_OF_PERICENTER":"89.2238","SEMIMAJOR_AXIS":"6925.393","GP_ID":"207090091","APOAPSIS":"548.189","INCLINATION":"53.0546","RCS_SIZE":"LARGE","MEAN_ELEMENT_THEORY":"SGP4","LAUNCH_DATE":"2020-01-07","OBJECT_TYPE":"PAYLOAD","RA_OF_ASC_NODE":"262.9371","TIME_SYSTEM":"UTC","COUNTRY_CODE":"US","ELEMENT_SET_NO":"999","EPHEMERIS_TYPE":"0","EPOCH":"2022-06-29T14:14:02.887008"}];
